[
    {
        "Altitude(m)": 612502.2430280589,
        "Argument of Periapsis(deg)": 0.0,
        "Eccentricity": 0.0,
        "Inclination(deg)": 60.0,
        "Latitude(deg)": -28.13612981143039,
        "Longitude(deg)": -127.85179185957494,
        "Mean Anomaly(deg)": -32.72730000000006,
        "RAAN(deg)": 350.0,
        "Satellite Name": "Test1 1560",
        "Satellite Number": 1560,
        "Semi-Major Axis(m)": 6980739.136638005,
        "Time(s)": 0
    },
    {
        "Altitude(m)": 612308.6904744734,
        "Argument of Periapsis(deg)": 0.00010418945913296404,
        "Eccentricity": 0.0,
        "Inclination(deg)": 60.0,
        "Latitude(deg)": -27.623185608016204,
        "Longitude(deg)": -127.49831632485248,
        "Mean Anomaly(deg)": -32.10719385453821,
        "RAAN(deg)": 349.99957995086027,
        "Satellite Name": "Test1 1560",
        "Satellite Number": 1560,
        "Semi-Major Axis(m)": 6980739.136638005,
        "Time(s)": 10
    }
]